IRIDIUM 166             
1 43570U 18061B   24321.19308176  .00000556  00000+0  19140-3 0  9995
2 43570  86.3927 298.2731 0002256  81.0933 279.0518 14.34216079330552
IRIDIUM 158             
1 43571U 18061C   24320.95206493  .00000711  00000+0  24673-3 0  9998
2 43571  86.3924 298.3835 0002467  84.3177 275.8300 14.34217515330487
IRIDIUM 165             
1 43572U 18061D   24320.69835817  .00000069  00000+0  17575-4 0  9998
2 43572  86.3925 298.5253 0002061  86.8937 273.2494 14.34217200330472
IRIDIUM 155             
1 43573U 18061E   24320.93938124  .00000222  00000+0  72215-4 0  9994
2 43573  86.3923 298.3219 0002427  82.5075 277.6396 14.34216452330470
IRIDIUM 154             
1 43574U 18061F   24320.92034903  .00000410  00000+0  13917-3 0  9998
2 43574  86.3919 298.4354 0002272  92.2987 267.8469 14.34215921330523
IRIDIUM 163             
1 43575U 18061G   24320.90132384  .00000356  00000+0  11997-3 0  9994
2 43575  86.3924 298.3764 0002459  90.0591 270.0887 14.34218473330499
IRIDIUM 156             
1 43576U 18061H   24320.94572095  .00000788  00000+0  27423-3 0  9996
2 43576  86.3923 298.3643 0002432  79.3269 280.8201 14.34220280330496
IRIDIUM 164             
1 43577U 18061J   24321.48483944  .00000598  00000+0  20661-3 0  9997
2 43577  86.3928 298.1700 0002034  84.9486 275.1942 14.34216070330610
